[{"OBJECT_NAME":"ONEWEB-0208","OBJECT_ID":"2021-031AK","EPOCH":"2026-03-09T16:10:34.413888","MEAN_MOTION":13.14502436,"ECCENTRICITY":0.0001886,"INCLINATION":87.8989,"RA_OF_ASC_NODE":309.5613,"ARG_OF_PERICENTER":82.6701,"MEAN_ANOMALY":277.4643,"EPHEMERIS_TYPE":0,"CLASSIFICATION_TYPE":"U","NORAD_CAT_ID":48243,"ELEMENT_SET_NO":999,"REV_AT_EPOCH":23523,"BSTAR":5.7265745e-5,"MEAN_MOTION_DOT":3.4e-7,"MEAN_MOTION_DDOT":0},{"OBJECT_NAME":"SL-14 DEB","OBJECT_ID":"1991-056AS","EPOCH":"2026-03-06T05:18:41.193504","MEAN_MOTION":13.23680313,"ECCENTRICITY":0.00486112,"INCLINATION":82.6919,"RA_OF_ASC_NODE":251.6281,"ARG_OF_PERICENTER":89.2287,"MEAN_ANOMALY":271.4409,"EPHEMERIS_TYPE":0,"CLASSIFICATION_TYPE":"U","NORAD_CAT_ID":45304,"ELEMENT_SET_NO":999,"REV_AT_EPOCH":28890,"BSTAR":0.0066501942,"MEAN_MOTION_DOT":2.855e-5,"MEAN_MOTION_DDOT":0}]
